QIANFAN-60              
1 62790U 25016F   25339.89206805  .00000066  00000+0  83530-4 0  9992
2 62790  88.9755 103.7834 0015506   9.4174 350.7265 13.50980878 46306
QIANFAN-61              
1 62791U 25016G   25339.92483650  .00000152  00000+0  21625-3 0  9994
2 62791  88.9822 103.9383 0014466   9.0864 351.0546 13.50977923 46324
QIANFAN-62              
1 62792U 25016H   25339.92893380  .00000164  00000+0  23534-3 0  9994
2 62792  88.9769 103.8099 0015848   8.8636 351.2792 13.50974363 46316
QIANFAN-63              
1 62793U 25016J   25339.87961765  .00000158  00000+0  22662-3 0  9996
2 62793  88.9776 103.7661 0016060  14.3694 345.7911 13.50981084 46344
QIANFAN-64              
1 62794U 25016K   25339.92069576  .00000148  00000+0  21073-3 0  9996
2 62794  88.9762 103.7369 0013801   8.0197 352.1172 13.50976181 46346
QIANFAN-65              
1 62795U 25016L   25339.91663115  .00000159  00000+0  22728-3 0  9995
2 62795  88.9759 103.7636 0013687   9.9157 350.2262 13.50981895 46323
QIANFAN-66              
1 62796U 25016M   25339.87131154  .00000164  00000+0  23517-3 0  9997
2 62796  88.9778 103.7371 0014660   4.9974 355.1321 13.50985983 46361
QIANFAN-67              
1 62797U 25016N   25339.87558648  .00000159  00000+0  22735-3 0  9994
2 62797  88.9768 103.7629 0014839  11.9888 348.1613 13.50978823 46335
QIANFAN-68              
1 62798U 25016P   25339.86729336  .00000167  00000+0  24042-3 0  9990
2 62798  88.9772 103.8087 0014835  10.2179 349.9271 13.50981162 46318
QIANFAN-69              
1 62799U 25016Q   25339.88380204  .00000155  00000+0  22147-3 0  9991
2 62799  88.9751 103.6778 0015623  10.9694 349.1795 13.50984062 46355
QIANFAN-70              
1 62800U 25016R   25339.97424347  .00000184  00000+0  26571-3 0  9998
2 62800  88.9772 103.8055 0014939   1.0738 359.0442 13.50974917 46324
QIANFAN-71              
1 62801U 25016S   25339.97011916  .00000179  00000+0  25907-3 0  9999
2 62801  88.9765 103.7858 0015640  14.3008 345.8583 13.50982076 46328
QIANFAN-72              
1 62802U 25016T   25339.91252980  .00000157  00000+0  22480-3 0  9991
2 62802  88.9756 103.8059 0019099  20.6001 339.5916 13.50981988 46307
QIANFAN-73              
1 63159U 25046A   25339.93955316  .00000133  00000+0  18688-3 0  9994
2 63159  88.9754 320.7269 0016050 137.8380 222.4009 13.50975375 46495
QIANFAN-74              
1 63160U 25046B   25339.92296072  .00000169  00000+0  24361-3 0  9996
2 63160  88.9755 320.6173 0001983  80.9511 279.1864 13.50977777 46557
QIANFAN-75              
1 63161U 25046C   25339.98430263  .00000095  00000+0  12843-3 0  9995
2 63161  88.9757 320.8444 0017065 141.0288 219.2096 13.50976036 46437
QIANFAN-76              
1 63162U 25046D   25339.98087379  .00000053  00000+0  62944-4 0  9994
2 63162  88.9755 320.8256 0014618 140.5806 219.6412 13.50962924 46446
QIANFAN-77              
1 63163U 25046E   25339.94843389  .00000457  00000+0  32320-3 0  9994
2 63163  88.9757 318.8915 0016868  99.9181 260.3901 13.96082417 47504
QIANFAN-78              
1 63164U 25046F   25339.94775560  .00000128  00000+0  17880-3 0  9999
2 63164  88.9754 320.6930 0015923 143.3128 216.9116 13.50975500 46515
QIANFAN-79              
1 63165U 25046G   25339.97642597  .00000142  00000+0  20081-3 0  9999
2 63165  88.9758 320.7973 0015674 141.5236 218.7036 13.50976988 46467
QIANFAN-80              
1 63166U 25046H   25339.91886650  .00000157  00000+0  22504-3 0  9992
2 63166  88.9756 320.5102 0014517 145.2184 214.9919 13.50974439 46610
QIANFAN-81              
1 63167U 25046J   25339.97145798  .00000187  00000+0  27001-3 0  9990
2 63167  88.9756 320.5727 0015854 134.7340 225.5104 13.51000060 46576
QIANFAN-82              
1 63168U 25046K   25339.93131062  .00000138  00000+0  19540-3 0  9991
2 63168  88.9756 320.6209 0013786 141.3205 218.8936 13.50973603 46556
QIANFAN-83              
1 63169U 25046L   25339.93992166  .00000186  00000+0  22475-3 0  9996
2 63169  88.9757 320.4096 0015470 128.5737 231.6809 13.61971931 46678
QIANFAN-84              
1 63170U 25046M   25339.95916992  .00000076  00000+0  99367-4 0  9996
2 63170  88.9755 320.7507 0016829 139.1928 221.0487 13.50985183 46483
QIANFAN-85              
1 63171U 25046N   25339.95587638  .00000183  00000+0  26387-3 0  9998
2 63171  88.9755 320.6227 0014170 140.2966 219.9226 13.50974096 46550
QIANFAN-86              
1 63172U 25046P   25339.96420397  .00000167  00000+0  23941-3 0  9993
2 63172  88.9758 320.4838 0011947 143.0434 217.1543 13.50973985 46637
QIANFAN-87              
1 63173U 25046Q   25339.93552404  .00000112  00000+0  15522-3 0  9992
2 63173  88.9753 320.5988 0012730 139.2290 220.9817 13.50972190 46563
QIANFAN-88              
1 63174U 25046R   25339.95188425  .00000160  00000+0  22869-3 0  9998
2 63174  88.9756 320.5514 0012896 146.7852 213.4111 13.50978530 46593
QIANFAN-89              
1 63175U 25046S   25339.91466933  .00000161  00000+0  22964-3 0  9995
2 63175  88.9756 320.7444 0017489 139.8565 220.3882 13.50974080 46481
QIANFAN-90              
1 63176U 25046T   25339.94341605  .00000103  00000+0  14085-3 0  9998
2 63176  88.9756 320.7138 0014491 137.0662 223.1623 13.50975213 46506
QIANFAN-91              
1 66033U 25233A   25339.95189770  .00000571  00000+0  43981-3 0  9991
2 66033  88.9957  62.8901 0018759  61.9833 298.3237 13.91523437  7034
QIANFAN-92              
1 66034U 25233B   25339.66388373 -.01887416  00000+0 -16397+1 0  9992
2 66034  88.9959  62.9208 0014319  51.8301 308.4159 13.89865952  6992
QIANFAN-93              
1 66035U 25233C   25339.66510744 -.01755265  00000+0 -16042+1 0  9995
2 66035  88.9957  62.9213 0015480  63.8287 296.4475 13.87264784  6994
QIANFAN-94              
1 66036U 25233D   25339.79855111 -.01893174  00000+0 -16370+1 0  9996
2 66036  88.9955  62.9047 0014997  49.8274 310.4210 13.90145117  7010
QIANFAN-95              
1 66037U 25233E   25339.91038741  .00000836  00000+0  39649-3 0  9992
2 66037  88.9964  62.8289 0015994  64.8524 295.4322 14.18634192  7069
QIANFAN-96              
1 66038U 25233F   25339.75859377 -.02046056  00000+0 -18828+1 0  9992
2 66038  88.9954  62.9179 0015001  61.9740 298.2947 13.86828264  7002
QIANFAN-97              
1 66039U 25233G   25339.73986851  .00000625  00000+0  47244-3 0  9994
2 66039  88.9964  62.9145 0017875  67.3691 292.9373 13.92706699  7001
QIANFAN-98              
1 66040U 25233H   25339.71150293 -.02050393  00000+0 -14559+1 0  9998
2 66040  88.9955  62.8739 0011538  63.6199 296.6164 14.01747162  7025
QIANFAN-99              
1 66041U 25233J   25339.73836776 -.01967215  00000+0 -17583+1 0  9997
2 66041  88.9954  62.9141 0013447  54.7283 305.5146 13.88380687  7006
QIANFAN-100             
1 66042U 25233K   25339.79354344 -.02048453  00000+0 -15167+1 0  9991
2 66042  88.9956  62.8676 0017227  65.4000 294.8971 13.99338174  7032
QIANFAN-101             
1 66043U 25233L   25339.93301098  .00000558  00000+0  22442-3 0  9993
2 66043  88.9965  62.8138 0016620  62.4970 297.7910 14.26669878  7073
QIANFAN-102             
1 66044U 25233M   25339.70129876 -.01829824  00000+0 -15563+1 0  9992
2 66044  88.9958  62.9098 0016622  59.4175 300.8636 13.91620994  7008
QIANFAN-103             
1 66045U 25233N   25339.96857934  .00000569  00000+0  44103-3 0  9993
2 66045  88.9961  62.8930 0017475  63.5470 296.7494 13.91224813  7036
QIANFAN-104             
1 66046U 25233P   25339.05832628  .00000459  00000+0  32882-3 0  9996
2 66046  88.9907  62.9784 0016306  81.6698 278.6327 13.95379177  6918
QIANFAN-105             
1 66047U 25233Q   25339.91168124  .00000518  00000+0  34722-3 0  9996
2 66047  88.9963  62.8851 0017134  63.2162 297.0767 13.99261320  7038
QIANFAN-106             
1 66048U 25233R   25339.65904825 -.01992970  00000+0 -16710+1 0  9993
2 66048  88.9954  62.9199 0016988  64.4493 295.8435 13.92118730  6992
QIANFAN-107             
1 66049U 25233S   25339.78110612 -.01904338  00000+0 -16798+1 0  9998
2 66049  88.9955  62.9028 0014368  50.5056 309.7385 13.89015191  7012
QIANFAN-108             
1 66050U 25233T   25339.71839885 -.01917675  00000+0 -16504+1 0  9996
2 66050  88.9956  62.9117 0013932  56.9638 303.2872 13.90476942  7002
